{
  "links" : {
    "next" : "https://api.nasa.gov/neo/rest/v1/neo/browse?page=46&size=20&api_key=jqAGvNAwUIBu4fl9FSOjdm3V4F7hIglRzI6pdX9d",
    "prev" : "https://api.nasa.gov/neo/rest/v1/neo/browse?page=44&size=20&api_key=jqAGvNAwUIBu4fl9FSOjdm3V4F7hIglRzI6pdX9d",
    "self" : "https://api.nasa.gov/neo/rest/v1/neo/browse?page=45&size=20&api_key=jqAGvNAwUIBu4fl9FSOjdm3V4F7hIglRzI6pdX9d"
  },
  "page" : {
    "size" : 20,
    "total_elements" : 20750,
    "total_pages" : 1038,
    "number" : 45
  },
  "near_earth_objects" : [ {
    "links" : {
      "self" : "https://api.nasa.gov/neo/rest/v1/neo/3421512?api_key=jqAGvNAwUIBu4fl9FSOjdm3V4F7hIglRzI6pdX9d"
    },
    "neo_reference_id" : "3421512",
    "name" : "(2008 OO1)",
    "designation" : "2008 OO1",
    "nasa_jpl_url" : "http://ssd.jpl.nasa.gov/sbdb.cgi?sstr=3421512",
    "absolute_magnitude_h" : 24.6,
    "estimated_diameter" : {
      "kilometers" : {
        "estimated_diameter_min" : 0.0319561887,
        "estimated_diameter_max" : 0.0714562102
      },
      "meters" : {
        "estimated_diameter_min" : 31.9561886721,
        "estimated_diameter_max" : 71.4562101727
      },
      "miles" : {
        "estimated_diameter_min" : 0.0198566489,
        "estimated_diameter_max" : 0.0444008168
      },
      "feet" : {
        "estimated_diameter_min" : 104.8431420431,
        "estimated_diameter_max" : 234.436392583
      }
    },
    "is_potentially_hazardous_asteroid" : false,
    "close_approach_data" : [ {
      "close_approach_date" : "2008-07-21",
      "epoch_date_close_approach" : 1216623600000,
      "relative_velocity" : {
        "kilometers_per_second" : "12.7396696694",
        "kilometers_per_hour" : "45862.8108098137",
        "miles_per_hour" : "28497.3670834645"
      },
      "miss_distance" : {
        "astronomical" : "0.0180873395",
        "lunar" : "7.0359745026",
        "kilometers" : "2705827.25",
        "miles" : "1681323.125"
      },
      "orbiting_body" : "Earth"
    } ],
    "orbital_data" : {
      "orbit_id" : "12",
      "orbit_determination_date" : "2017-04-06 09:03:12",
      "first_observation_date" : "2008-07-26",
      "last_observation_date" : "2008-08-27",
      "data_arc_in_days" : 32,
      "observations_used" : 42,
      "orbit_uncertainty" : "7",
      "minimum_orbit_intersection" : ".021062",
      "jupiter_tisserand_invariant" : "3.204",
      "epoch_osculation" : "2458600.5",
      "eccentricity" : ".6142573033062401",
      "semi_major_axis" : "2.432088029946772",
      "inclination" : "9.337317508590875",
      "ascending_node_longitude" : "304.1950144764056",
      "orbital_period" : "1385.375051126326",
      "perihelion_distance" : ".9381601952682819",
      "perihelion_argument" : "314.2970332133874",
      "aphelion_distance" : "3.926015864625262",
      "perihelion_time" : "2458788.950049348457",
      "mean_anomaly" : "311.0298545435129",
      "mean_motion" : ".2598574297316208",
      "equinox" : "J2000",
      "orbit_class" : {
        "orbit_class_type" : "APO",
        "orbit_class_range" : "a (semi-major axis) > 1.0 AU; q (perihelion) < 1.017 AU",
        "orbit_class_description" : "Near-Earth asteroid orbits which cross the Earth’s orbit similar to that of 1862 Apollo"
      }
    },
    "is_sentry_object" : true,
    "sentry_data" : "https://api.nasa.gov/neo/rest/v1/neo/sentry/3421512?api_key=jqAGvNAwUIBu4fl9FSOjdm3V4F7hIglRzI6pdX9d"
  }, {
    "links" : {
      "self" : "https://api.nasa.gov/neo/rest/v1/neo/3421944?api_key=jqAGvNAwUIBu4fl9FSOjdm3V4F7hIglRzI6pdX9d"
    },
    "neo_reference_id" : "3421944",
    "name" : "(2008 OV2)",
    "designation" : "2008 OV2",
    "nasa_jpl_url" : "http://ssd.jpl.nasa.gov/sbdb.cgi?sstr=3421944",
    "absolute_magnitude_h" : 20.3,
    "estimated_diameter" : {
      "kilometers" : {
        "estimated_diameter_min" : 0.2315021222,
        "estimated_diameter_max" : 0.5176544822
      },
      "meters" : {
        "estimated_diameter_min" : 231.5021222103,
        "estimated_diameter_max" : 517.6544821978
      },
      "miles" : {
        "estimated_diameter_min" : 0.1438487052,
        "estimated_diameter_max" : 0.3216554833
      },
      "feet" : {
        "estimated_diameter_min" : 759.5214226325,
        "estimated_diameter_max" : 1698.3415313737
      }
    },
    "is_potentially_hazardous_asteroid" : false,
    "close_approach_data" : [ {
      "close_approach_date" : "1997-04-03",
      "epoch_date_close_approach" : 860054400000,
      "relative_velocity" : {
        "kilometers_per_second" : "15.0038364609",
        "kilometers_per_hour" : "54013.8112593718",
        "miles_per_hour" : "33562.0817794691"
      },
      "miss_distance" : {
        "astronomical" : "0.366078977",
        "lunar" : "142.4047241211",
        "kilometers" : "54764636",
        "miles" : "34029168"
      },
      "orbiting_body" : "Earth"
    }, {
      "close_approach_date" : "2008-05-14",
      "epoch_date_close_approach" : 1210748400000,
      "relative_velocity" : {
        "kilometers_per_second" : "10.0902620487",
        "kilometers_per_hour" : "36324.943375469",
        "miles_per_hour" : "22570.9071768296"
      },
      "miss_distance" : {
        "astronomical" : "0.2515033477",
        "lunar" : "97.8348007202",
        "kilometers" : "37624364",
        "miles" : "23378696"
      },
      "orbiting_body" : "Earth"
    } ],
    "orbital_data" : {
      "orbit_id" : "16",
      "orbit_determination_date" : "2017-04-06 09:03:11",
      "first_observation_date" : "2008-07-28",
      "last_observation_date" : "2008-08-28",
      "data_arc_in_days" : 31,
      "observations_used" : 48,
      "orbit_uncertainty" : "6",
      "minimum_orbit_intersection" : ".109455",
      "jupiter_tisserand_invariant" : "3.253",
      "epoch_osculation" : "2458600.5",
      "eccentricity" : ".5733491741510767",
      "semi_major_axis" : "2.383237902017173",
      "inclination" : "15.29341372856234",
      "ascending_node_longitude" : "286.3755982001481",
      "orbital_period" : "1343.846060530498",
      "perihelion_distance" : "1.016810419090082",
      "perihelion_argument" : "307.6066019778677",
      "aphelion_distance" : "3.749665384944263",
      "perihelion_time" : "2458622.729072086776",
      "mean_anomaly" : "354.045102198625",
      "mean_motion" : ".267887826272219",
      "equinox" : "J2000",
      "orbit_class" : {
        "orbit_class_type" : "APO",
        "orbit_class_range" : "a (semi-major axis) > 1.0 AU; q (perihelion) < 1.017 AU",
        "orbit_class_description" : "Near-Earth asteroid orbits which cross the Earth’s orbit similar to that of 1862 Apollo"
      }
    },
    "is_sentry_object" : false
  }, {
    "links" : {
      "self" : "https://api.nasa.gov/neo/rest/v1/neo/3422138?api_key=jqAGvNAwUIBu4fl9FSOjdm3V4F7hIglRzI6pdX9d"
    },
    "neo_reference_id" : "3422138",
    "name" : "(2008 OA6)",
    "designation" : "2008 OA6",
    "nasa_jpl_url" : "http://ssd.jpl.nasa.gov/sbdb.cgi?sstr=3422138",
    "absolute_magnitude_h" : 22.7,
    "estimated_diameter" : {
      "kilometers" : {
        "estimated_diameter_min" : 0.0766575574,
        "estimated_diameter_max" : 0.1714115092
      },
      "meters" : {
        "estimated_diameter_min" : 76.6575573531,
        "estimated_diameter_max" : 171.4115092306
      },
      "miles" : {
        "estimated_diameter_min" : 0.0476327831,
        "estimated_diameter_max" : 0.1065101409
      },
      "feet" : {
        "estimated_diameter_min" : 251.5011804664,
        "estimated_diameter_max" : 562.3737359442
      }
    },
    "is_potentially_hazardous_asteroid" : false,
    "close_approach_data" : [ {
      "close_approach_date" : "2008-07-09",
      "epoch_date_close_approach" : 1215586800000,
      "relative_velocity" : {
        "kilometers_per_second" : "7.4729149441",
        "kilometers_per_hour" : "26902.4937989386",
        "miles_per_hour" : "16716.1634385683"
      },
      "miss_distance" : {
        "astronomical" : "0.1021324598",
        "lunar" : "39.7295265198",
        "kilometers" : "15278799",
        "miles" : "9493806"
      },
      "orbiting_body" : "Earth"
    } ],
    "orbital_data" : {
      "orbit_id" : "12",
      "orbit_determination_date" : "2017-04-06 09:03:11",
      "first_observation_date" : "2008-07-29",
      "last_observation_date" : "2008-08-25",
      "data_arc_in_days" : 27,
      "observations_used" : 32,
      "orbit_uncertainty" : "7",
      "minimum_orbit_intersection" : ".087259",
      "jupiter_tisserand_invariant" : "3.526",
      "epoch_osculation" : "2458600.5",
      "eccentricity" : ".5031659980201572",
      "semi_major_axis" : "2.140163469051753",
      "inclination" : "9.078059088044254",
      "ascending_node_longitude" : "133.8735912172529",
      "orbital_period" : "1143.586044594942",
      "perihelion_distance" : "1.063305981220046",
      "perihelion_argument" : "140.9279322886066",
      "aphelion_distance" : "3.21702095688346",
      "perihelion_time" : "2458077.128101231044",
      "mean_anomaly" : "164.7570678632759",
      "mean_motion" : ".3147992245109215",
      "equinox" : "J2000",
      "orbit_class" : {
        "orbit_class_type" : "AMO",
        "orbit_class_range" : "1.017 AU < q (perihelion) < 1.3 AU",
        "orbit_class_description" : "Near-Earth asteroid orbits similar to that of 1221 Amor"
      }
    },
    "is_sentry_object" : false
  } ]
}